[{"OBJECT_NAME":"STARLINK-5638","OBJECT_ID":"2023-014AM","EPOCH":"2026-03-09T10:55:05.496672","MEAN_MOTION":14.98340882,"ECCENTRICITY":0.0003103,"INCLINATION":69.9988,"RA_OF_ASC_NODE":85.187,"ARG_OF_PERICENTER":270.8133,"MEAN_ANOMALY":89.2671,"EPHEMERIS_TYPE":0,"CLASSIFICATION_TYPE":"U","NORAD_CAT_ID":55426,"ELEMENT_SET_NO":999,"REV_AT_EPOCH":17152,"BSTAR":8.5342334e-5,"MEAN_MOTION_DOT":9.26e-6,"MEAN_MOTION_DDOT":0},{"OBJECT_NAME":"BRO-15","OBJECT_ID":"2024-149CP","EPOCH":"2026-03-09T18:52:33.918816","MEAN_MOTION":14.95892184,"ECCENTRICITY":0.00093198,"INCLINATION":97.6864,"RA_OF_ASC_NODE":146.0377,"ARG_OF_PERICENTER":65.4416,"MEAN_ANOMALY":294.7775,"EPHEMERIS_TYPE":0,"CLASSIFICATION_TYPE":"U","NORAD_CAT_ID":60553,"ELEMENT_SET_NO":999,"REV_AT_EPOCH":8514,"BSTAR":7.8021491e-5,"MEAN_MOTION_DOT":8.16e-6,"MEAN_MOTION_DDOT":0}]
