STARLINK-5638           
1 55426U 23014AM  26068.45492473  .00000926  00000+0  85342-4 0  9994
2 55426  69.9988  85.1870 0003103 270.8133  89.2671 14.98340882171529
BRO-15                  
1 60553U 24149CP  26068.78650368  .00000816  00000+0  78021-4 0  9990
2 60553  97.6864 146.0377 0009320  65.4416 294.7775 14.95892184 85149
